{
  "type": "FeatureCollection",
  "features": [
    {
      "type": "Feature",
      "properties": {
        "norad_id": 66327,
        "name": "STARLINK-35507",
        "group": "last-30-days",
        "lat": 13.701753777891975,
        "lon": -151.4900623851331,
        "alt_km": 412.18105126538194,
        "timestamp": "2025-12-02T15:49:05.947117+00:00",
        "meta_object_name": "STARLINK-35507",
        "meta_object_id": "2025-253J",
        "meta_epoch": "2025-12-02T05:51:32.368032",
        "meta_mean_motion": 15.50777938,
        "meta_eccentricity": 0.00025961,
        "meta_inclination": 42.9999,
        "meta_ra_of_asc_node": 46.106,
        "meta_arg_of_pericenter": 253.7936,
        "meta_mean_anomaly": 106.2639,
        "meta_ephemeris_type": 0,
        "meta_classification_type": "U",
        "meta_norad_cat_id": 66327,
        "meta_element_set_no": 999,
        "meta_rev_at_epoch": 530,
        "meta_bstar": 0.0021550364,
        "meta_mean_motion_dot": 0.00129109,
        "meta_mean_motion_ddot": 0,
        "tle_line1": "1 66327U 25253J   25336.24412463  .00129109  00000+0  21550-2 0  9992",
        "tle_line2": "2 66327  42.9999  46.1060 0002596 253.7936 106.2639 15.50777938  5309"
      },
      "geometry": {
        "type": "Point",
        "coordinates": [
          -151.4900623851331,
          13.701753777891975
        ]
      }
    },
    {
      "type": "Feature",
      "properties": {
        "norad_id": 66328,
        "name": "STARLINK-35460",
        "group": "last-30-days",
        "lat": 2.006941078858754,
        "lon": -138.52514635282589,
        "alt_km": 414.48424314848216,
        "timestamp": "2025-12-02T15:49:05.947127+00:00",
        "meta_object_name": "STARLINK-35460",
        "meta_object_id": "2025-253K",
        "meta_epoch": "2025-12-01T14:19:31.564704",
        "meta_mean_motion": 15.50606087,
        "meta_eccentricity": 0.00018266,
        "meta_inclination": 43.0003,
        "meta_ra_of_asc_node": 49.8457,
        "meta_arg_of_pericenter": 291.64,
        "meta_mean_anomaly": 68.4265,
        "meta_ephemeris_type": 0,
        "meta_classification_type": "U",
        "meta_norad_cat_id": 66328,
        "meta_element_set_no": 999,
        "meta_rev_at_epoch": 520,
        "meta_bstar": 0.0016742687,
        "meta_mean_motion_dot": 0.0009923,
        "meta_mean_motion_ddot": 0,
        "tle_line1": "1 66328U 25253K   25335.59689311  .00099230  00000+0  16743-2 0  9997",
        "tle_line2": "2 66328  43.0003  49.8457 0001826 291.6400  68.4265 15.50606087  5209"
      },
      "geometry": {
        "type": "Point",
        "coordinates": [
          -138.52514635282589,
          2.006941078858754
        ]
      }
    },
    {
      "type": "Feature",
      "properties": {
        "norad_id": 66329,
        "name": "STARLINK-35505",
        "group": "last-30-days",
        "lat": 15.528395754150054,
        "lon": -153.66299908708862,
        "alt_km": 414.851403994272,
        "timestamp": "2025-12-02T15:49:05.947138+00:00",
        "meta_object_name": "STARLINK-35505",
        "meta_object_id": "2025-253L",
        "meta_epoch": "2025-12-02T05:52:02.295264",
        "meta_mean_motion": 15.50171072,
        "meta_eccentricity": 0.00021498,
        "meta_inclination": 43.0001,
        "meta_ra_of_asc_node": 46.1098,
        "meta_arg_of_pericenter": 329.5243,
        "meta_mean_anomaly": 30.5492,
        "meta_ephemeris_type": 0,
        "meta_classification_type": "U",
        "meta_norad_cat_id": 66329,
        "meta_element_set_no": 999,
        "meta_rev_at_epoch": 530,
        "meta_bstar": 0.002540188,
        "meta_mean_motion_dot": 0.00149376,
        "meta_mean_motion_ddot": 0,
        "tle_line1": "1 66329U 25253L   25336.24447101  .00149376  00000+0  25402-2 0  9999",
        "tle_line2": "2 66329  43.0001  46.1098 0002149 329.5243  30.5492 15.50171072  5308"
      },
      "geometry": {
        "type": "Point",
        "coordinates": [
          -153.66299908708862,
          15.528395754150054
        ]
      }
    },
    {
      "type": "Feature",
      "properties": {
        "norad_id": 66330,
        "name": "STARLINK-35512",
        "group": "last-30-days",
        "lat": 41.46800670607082,
        "lon": 152.31133473588088,
        "alt_km": 438.729418620509,
        "timestamp": "2025-12-02T15:49:05.947148+00:00",
        "meta_object_name": "STARLINK-35512",
        "meta_object_id": "2025-253M",
        "meta_epoch": "2025-12-02T06:00:02.999808",
        "meta_mean_motion": 15.40646388,
        "meta_eccentricity": 0.00019144,
        "meta_inclination": 43.0006,
        "meta_ra_of_asc_node": 46.1715,
        "meta_arg_of_pericenter": 287.614,
        "meta_mean_anomaly": 64.587,
        "meta_ephemeris_type": 0,
        "meta_classification_type": "U",
        "meta_norad_cat_id": 66330,
        "meta_element_set_no": 999,
        "meta_rev_at_epoch": 524,
        "meta_bstar": 0.0017320996,
        "meta_mean_motion_dot": 0.00072614,
        "meta_mean_motion_ddot": 0,
        "tle_line1": "1 66330U 25253M   25336.25003472  .00072614  00000+0  17321-2 0  9992",
        "tle_line2": "2 66330  43.0006  46.1715 0001914 287.6140  64.5870 15.40646388  5246"
      },
      "geometry": {
        "type": "Point",
        "coordinates": [
          152.31133473588088,
          41.46800670607082
        ]
      }
    },
    {
      "type": "Feature",
      "properties": {
        "norad_id": 66331,
        "name": "STARLINK-35257",
        "group": "last-30-days",
        "lat": -1.676536466092134,
        "lon": -134.5796924251474,
        "alt_km": 414.6415612237206,
        "timestamp": "2025-12-02T15:49:05.947160+00:00",
        "meta_object_name": "STARLINK-35257",
        "meta_object_id": "2025-253N",
        "meta_epoch": "2025-12-02T05:45:36.980640",
        "meta_mean_motion": 15.5063759,
        "meta_eccentricity": 0.00012288,
        "meta_inclination": 42.9998,
        "meta_ra_of_asc_node": 46.0726,
        "meta_arg_of_pericenter": 269.4284,
        "meta_mean_anomaly": 90.6435,
        "meta_ephemeris_type": 0,
        "meta_classification_type": "U",
        "meta_norad_cat_id": 66331,
        "meta_element_set_no": 999,
        "meta_rev_at_epoch": 530,
        "meta_bstar": 0.0014445212,
        "meta_mean_motion_dot": 0.00085511,
        "meta_mean_motion_ddot": 0,
        "tle_line1": "1 66331U 25253N   25336.24001135  .00085511  00000+0  14445-2 0  9990",
        "tle_line2": "2 66331  42.9998  46.0726 0001228 269.4284  90.6435 15.50637590  5301"
      },
      "geometry": {
        "type": "Point",
        "coordinates": [
          -134.5796924251474,
          -1.676536466092134
        ]
      }
    },
    {
      "type": "Feature",
      "properties": {
        "norad_id": 66332,
        "name": "STARLINK-35322",
        "group": "last-30-days",
        "lat": 4.771148781698905,
        "lon": -141.4956218957749,
        "alt_km": 413.9335037443134,
        "timestamp": "2025-12-02T15:49:05.947170+00:00",
        "meta_object_name": "STARLINK-35322",
        "meta_object_id": "2025-253P",
        "meta_epoch": "2025-12-02T05:48:04.240800",
        "meta_mean_motion": 15.50671276,
        "meta_eccentricity": 9.862e-05,
        "meta_inclination": 43.0002,
        "meta_ra_of_asc_node": 46.0856,
        "meta_arg_of_pericenter": 282.8379,
        "meta_mean_anomaly": 77.2371,
        "meta_ephemeris_type": 0,
        "meta_classification_type": "U",
        "meta_norad_cat_id": 66332,
        "meta_element_set_no": 999,
        "meta_rev_at_epoch": 530,
        "meta_bstar": 0.0015229972,
        "meta_mean_motion_dot": 0.00090339,
        "meta_mean_motion_ddot": 0,
        "tle_line1": "1 66332U 25253P   25336.24171575  .00090339  00000+0  15230-2 0  9994",
        "tle_line2": "2 66332  43.0002  46.0856 0000986 282.8379  77.2371 15.50671276  5307"
      },
      "geometry": {
        "type": "Point",
        "coordinates": [
          -141.4956218957749,
          4.771148781698905
        ]
      }
    },
    {
      "type": "Feature",
      "properties": {
        "norad_id": 66333,
        "name": "STARLINK-35400",
        "group": "last-30-days",
        "lat": -0.3586966774608488,
        "lon": -135.99208015670658,
        "alt_km": 414.3591612749433,
        "timestamp": "2025-12-02T15:49:05.947181+00:00",
        "meta_object_name": "STARLINK-35400",
        "meta_object_id": "2025-253Q",
        "meta_epoch": "2025-12-02T05:46:06.662496",
        "meta_mean_motion": 15.50632789,
        "meta_eccentricity": 0.00016061,
        "meta_inclination": 43.0007,
        "meta_ra_of_asc_node": 46.0732,
        "meta_arg_of_pericenter": 261.2181,
        "meta_mean_anomaly": 98.8498,
        "meta_ephemeris_type": 0,
        "meta_classification_type": "U",
        "meta_norad_cat_id": 66333,
        "meta_element_set_no": 999,
        "meta_rev_at_epoch": 530,
        "meta_bstar": 0.0015089073,
        "meta_mean_motion_dot": 0.00089367,
        "meta_mean_motion_ddot": 0,
        "tle_line1": "1 66333U 25253Q   25336.24035489  .00089367  00000+0  15089-2 0  9999",
        "tle_line2": "2 66333  43.0007  46.0732 0001606 261.2181  98.8498 15.50632789  5303"
      },
      "geometry": {
        "type": "Point",
        "coordinates": [
          -135.99208015670658,
          -0.3586966774608488
        ]
      }
    }
  ]
}